start=new Date('2022-04-13T00:00:00.000Z').valueOf();
sats=[{"OBJECT_NAME":"STARLINK-2509","LAUNCH_DATE":"2021-04-29","TLE_LINE2":"2 48318  53.0570  27.1646 0001380  59.2106 300.9019 15.06383590 52961","RCS_SIZE":"LARGE","GP_ID":"201092648","ARG_OF_PERICENTER":"59.2106","MEAN_MOTION":"15.06383590","EPOCH":"2022-04-12T19:15:59.020416","ELEMENT_SET_NO":"999","NORAD_CAT_ID":"48318","REF_FRAME":"TEME","MEAN_MOTION_DOT":"-0.00000687","RA_OF_ASC_NODE":"27.1646","MEAN_ANOMALY":"300.9019","INCLINATION":"53.0570","BSTAR":"-0.00002725000000","COUNTRY_CODE":"US","DECAY_DATE":null,"TLE_LINE1":"1 48318U 21036AU  22102.80276644 -.00000687  00000-0 -27250-4 0  9993","OBJECT_ID":"2021-036AU","PERIAPSIS":"546.308","FILE":"3398892","OBJECT_TYPE":"PAYLOAD","PERIOD":"95.593","MEAN_MOTION_DDOT":"0.0000000000000","EPHEMERIS_TYPE":"0","SITE":"AFETR","MEAN_ELEMENT_THEORY":"SGP4","SEMIMAJOR_AXIS":"6925.399","REV_AT_EPOCH":"5296","APOAPSIS":"548.220","CLASSIFICATION_TYPE":"U","TIME_SYSTEM":"UTC","ECCENTRICITY":"0.00013800","CENTER_NAME":"EARTH"},{"MEAN_MOTION_DDOT":"0.0000000000000","SEMIMAJOR_AXIS":"6925.443","REV_AT_EPOCH":"5287","APOAPSIS":"548.411","SITE":"AFETR","EPHEMERIS_TYPE":"0","MEAN_ELEMENT_THEORY":"SGP4","CLASSIFICATION_TYPE":"U","ECCENTRICITY":"0.00015930","CENTER_NAME":"EARTH","TIME_SYSTEM":"UTC","OBJECT_ID":"2021-036AV","TLE_LINE1":"1 48319U 21036AV  22102.20196683 -.00000457  00000-0 -11799-4 0  9998","DECAY_DATE":null,"PERIAPSIS":"546.205","FILE":"3398537","PERIOD":"95.594","OBJECT_TYPE":"PAYLOAD","REF_FRAME":"TEME","ELEMENT_SET_NO":"999","NORAD_CAT_ID":"48319","RA_OF_ASC_NODE":"29.8546","MEAN_MOTION_DOT":"-0.00000457","BSTAR":"-0.00001179900000","MEAN_ANOMALY":"300.1633","INCLINATION":"53.0582","COUNTRY_CODE":"US","TLE_LINE2":"2 48319  53.0582  29.8546 0001593  59.9514 300.1633 15.06369237 52875","LAUNCH_DATE":"2021-04-29","OBJECT_NAME":"STARLINK-2512","GP_ID":"201060221","RCS_SIZE":"LARGE","MEAN_MOTION":"15.06369237","ARG_OF_PERICENTER":"59.9514","EPOCH":"2022-04-12T04:50:49.934112"},{"CLASSIFICATION_TYPE":"U","TIME_SYSTEM":"UTC","CENTER_NAME":"EARTH","ECCENTRICITY":"0.00015930","MEAN_MOTION_DDOT":"0.0000000000000","EPHEMERIS_TYPE":"0","SITE":"AFETR","MEAN_ELEMENT_THEORY":"SGP4","APOAPSIS":"548.391","SEMIMAJOR_AXIS":"6925.423","REV_AT_EPOCH":"5297","FILE":"3398892","OBJECT_TYPE":"PAYLOAD","PERIOD":"95.594","DECAY_DATE":null,"TLE_LINE1":"1 48320U 21036AW  22102.86173682 -.00002303  00000-0 -13582-3 0  9999","PERIAPSIS":"546.185","OBJECT_ID":"2021-036AW","INCLINATION":"53.0558","MEAN_ANOMALY":"286.2350","BSTAR":"-0.00013582000000","COUNTRY_CODE":"US","ELEMENT_SET_NO":"999","NORAD_CAT_ID":"48320","REF_FRAME":"TEME","MEAN_MOTION_DOT":"-0.00002303","RA_OF_ASC_NODE":"26.9051","ARG_OF_PERICENTER":"73.8814","MEAN_MOTION":"15.06375637","EPOCH":"2022-04-12T20:40:54.061248","LAUNCH_DATE":"2021-04-29","OBJECT_NAME":"STARLINK-2029","TLE_LINE2":"2 48320  53.0558  26.9051 0001593  73.8814 286.2350 15.06375637 52979","RCS_SIZE":"LARGE","GP_ID":"201093650"},{"CLASSIFICATION_TYPE":"U","TIME_SYSTEM":"UTC","ECCENTRICITY":"0.00015110","CENTER_NAME":"EARTH","MEAN_MOTION_DDOT":"0.0000000000000","SITE":"AFETR","MEAN_ELEMENT_THEORY":"SGP4","EPHEMERIS_TYPE":"0","SEMIMAJOR_AXIS":"6925.417","REV_AT_EPOCH":"5355","APOAPSIS":"548.329","FILE":"3398615","OBJECT_TYPE":"PAYLOAD","PERIOD":"95.594","TLE_LINE1":"1 48321U 21036AX  22102.79171380  .00003254  00000-0  23741-3 0  9997","DECAY_DATE":null,"PERIAPSIS":"546.236","OBJECT_ID":"2021-036AX","MEAN_ANOMALY":"295.5107","INCLINATION":"53.0576","BSTAR":"0.00023741000000","COUNTRY_CODE":"US","ELEMENT_SET_NO":"999","NORAD_CAT_ID":"48321","REF_FRAME":"TEME","MEAN_MOTION_DOT":"0.00003254","RA_OF_ASC_NODE":"27.2079","ARG_OF_PERICENTER":"64.6038","MEAN_MOTION":"15.06377619","EPOCH":"2022-04-12T19:00:04.072320","LAUNCH_DATE":"2021-04-29","OBJECT_NAME":"STARLINK-2457","TLE_LINE2":"2 48321  53.0576  27.2079 0001511  64.6038 295.5107 15.06377619 53550","RCS_SIZE":"LARGE","GP_ID":"201065297"},{"INCLINATION":"53.0566","MEAN_ANOMALY":"292.2202","BSTAR":"-0.00031331000000","COUNTRY_CODE":"US","ELEMENT_SET_NO":"999","NORAD_CAT_ID":"48322","REF_FRAME":"TEME","MEAN_MOTION_DOT":"-0.00004942","RA_OF_ASC_NODE":"27.2218","ARG_OF_PERICENTER":"67.8978","MEAN_MOTION":"15.06371329","EPOCH":"2022-04-12T18:54:44.802720","OBJECT_NAME":"STARLINK-2477","LAUNCH_DATE":"2021-04-29","TLE_LINE2":"2 48322  53.0566  27.2218 0001797  67.8978 292.2202 15.06371329 52965","RCS_SIZE":"MEDIUM","GP_ID":"201092148","CLASSIFICATION_TYPE":"U","TIME_SYSTEM":"UTC","CENTER_NAME":"EARTH","ECCENTRICITY":"0.00017970","MEAN_MOTION_DDOT":"0.0000000000000","EPHEMERIS_TYPE":"0","SITE":"AFETR","MEAN_ELEMENT_THEORY":"SGP4","APOAPSIS":"548.546","SEMIMAJOR_AXIS":"6925.436","REV_AT_EPOCH":"5296","FILE":"3398892","OBJECT_TYPE":"PAYLOAD","PERIOD":"95.594","TLE_LINE1":"1 48322U 21036AY  22102.78801855 -.00004942  00000-0 -31331-3 0  9995","DECAY_DATE":null,"PERIAPSIS":"546.057","OBJECT_ID":"2021-036AY"},{"MEAN_MOTION_DDOT":"0.0000000000000","SITE":"AFETR","EPHEMERIS_TYPE":"0","MEAN_ELEMENT_THEORY":"SGP4","APOAPSIS":"548.412","REV_AT_EPOCH":"5296","SEMIMAJOR_AXIS":"6925.442","CLASSIFICATION_TYPE":"U","TIME_SYSTEM":"UTC","CENTER_NAME":"EARTH","ECCENTRICITY":"0.00015960","OBJECT_ID":"2021-036AZ","TLE_LINE1":"1 48323U 21036AZ  22102.78435184 -.00001545  00000-0 -84910-4 0  9992","DECAY_DATE":null,"PERIAPSIS":"546.202","FILE":"3398892","OBJECT_TYPE":"PAYLOAD","PERIOD":"95.594","NORAD_CAT_ID":"48323","ELEMENT_SET_NO":"999","REF_FRAME":"TEME","MEAN_MOTION_DOT":"-0.00001545","RA_OF_ASC_NODE":"27.2465","INCLINATION":"53.0562","MEAN_ANOMALY":"311.8512","BSTAR":"-0.00008491000000","COUNTRY_CODE":"US","LAUNCH_DATE":"2021-04-29","OBJECT_NAME":"STARLINK-2515","TLE_LINE2":"2 48323  53.0562  27.2465 0001596  48.2613 311.8512 15.06369497 52967","RCS_SIZE":"LARGE","GP_ID":"201092899","ARG_OF_PERICENTER":"48.2613","MEAN_MOTION":"15.06369497","EPOCH":"2022-04-12T18:49:27.998976"},{"SITE":"AFETR","MEAN_ELEMENT_THEORY":"SGP4","EPHEMERIS_TYPE":"0","APOAPSIS":"548.279","SEMIMAJOR_AXIS":"6925.430","REV_AT_EPOCH":"5346","MEAN_MOTION_DDOT":"0.0000000000000","TIME_SYSTEM":"UTC","CENTER_NAME":"EARTH","ECCENTRICITY":"0.00014210","CLASSIFICATION_TYPE":"U","TLE_LINE1":"1 48324U 21036BA  22102.18353827  .00001149  00000-0  96098-4 0  9998","PERIAPSIS":"546.311","DECAY_DATE":null,"OBJECT_ID":"2021-036BA","OBJECT_TYPE":"PAYLOAD","PERIOD":"95.594","FILE":"3397854","MEAN_MOTION_DOT":"0.00001149","RA_OF_ASC_NODE":"29.9435","ELEMENT_SET_NO":"999","NORAD_CAT_ID":"48324","REF_FRAME":"TEME","COUNTRY_CODE":"US","INCLINATION":"53.0546","MEAN_ANOMALY":"293.3627","BSTAR":"0.00009609800000","RCS_SIZE":"LARGE","GP_ID":"201023192","OBJECT_NAME":"STARLINK-2527","LAUNCH_DATE":"2021-04-29","TLE_LINE2":"2 48324  53.0546  29.9435 0001421  66.7512 293.3627 15.06373452 53469","EPOCH":"2022-04-12T04:24:17.706528","ARG_OF_PERICENTER":"66.7512","MEAN_MOTION":"15.06373452"},{"EPOCH":"2022-04-12T12:16:41.191104","MEAN_MOTION":"15.06373269","ARG_OF_PERICENTER":"58.9745","GP_ID":"201031470","RCS_SIZE":"LARGE","TLE_LINE2":"2 48325  53.0562  28.4809 0001501  58.9745 301.1391 15.06373269 53515","LAUNCH_DATE":"2021-04-29","OBJECT_NAME":"STARLINK-2495","COUNTRY_CODE":"US","BSTAR":"-0.00002605700000","MEAN_ANOMALY":"301.1391","INCLINATION":"53.0562","RA_OF_ASC_NODE":"28.4809","MEAN_MOTION_DOT":"-0.00000669","REF_FRAME":"TEME","ELEMENT_SET_NO":"999","NORAD_CAT_ID":"48325","PERIOD":"95.594","OBJECT_TYPE":"PAYLOAD","FILE":"3398250","OBJECT_ID":"2021-036BB","TLE_LINE1":"1 48325U 21036BB  22102.51158786 -.00000669  00000-0 -26057-4 0  9999","DECAY_DATE":null,"PERIAPSIS":"546.256","ECCENTRICITY":"0.00015010","CENTER_NAME":"EARTH","TIME_SYSTEM":"UTC","CLASSIFICATION_TYPE":"U","REV_AT_EPOCH":"5351","SEMIMAJOR_AXIS":"6925.430","APOAPSIS":"548.335","MEAN_ELEMENT_THEORY":"SGP4","SITE":"AFETR","EPHEMERIS_TYPE":"0","MEAN_MOTION_DDOT":"0.0000000000000"},{"EPHEMERIS_TYPE":"0","SITE":"AFETR","MEAN_ELEMENT_THEORY":"SGP4","REV_AT_EPOCH":"5297","SEMIMAJOR_AXIS":"6925.373","APOAPSIS":"548.203","MEAN_MOTION_DDOT":"0.0000000000000","TIME_SYSTEM":"UTC","ECCENTRICITY":"0.00013940","CENTER_NAME":"EARTH","CLASSIFICATION_TYPE":"U","TLE_LINE1":"1 48326U 21036BC  22102.83961170  .00000713  00000-0  66787-4 0  9996","PERIAPSIS":"546.273","DECAY_DATE":null,"OBJECT_ID":"2021-036BC","OBJECT_TYPE":"PAYLOAD","PERIOD":"95.593","FILE":"3398892","MEAN_MOTION_DOT":"0.00000713","RA_OF_ASC_NODE":"26.9942","ELEMENT_SET_NO":"999","NORAD_CAT_ID":"48326","REF_FRAME":"TEME","COUNTRY_CODE":"US","MEAN_ANOMALY":"279.0507","INCLINATION":"53.0574","BSTAR":"0.00006678700000","RCS_SIZE":"LARGE","GP_ID":"201092649","LAUNCH_DATE":"2021-04-29","OBJECT_NAME":"STARLINK-2498","TLE_LINE2":"2 48326  53.0574  26.9942 0001394  81.0640 279.0507 15.06392017 52974","EPOCH":"2022-04-12T20:09:02.450880","ARG_OF_PERICENTER":"81.0640","MEAN_MOTION":"15.06392017"},{"LAUNCH_DATE":"2021-04-29","OBJECT_NAME":"STARLINK-2502","TLE_LINE2":"2 48327  53.0572  27.0071 0001331  65.7103 294.4024 15.06389157 53564","RCS_SIZE":"LARGE","GP_ID":"201064680","ARG_OF_PERICENTER":"65.7103","MEAN_MOTION":"15.06389157","EPOCH":"2022-04-12T20:03:44.815104","ELEMENT_SET_NO":"999","NORAD_CAT_ID":"48327","REF_FRAME":"TEME","MEAN_MOTION_DOT":"-0.00000656","RA_OF_ASC_NODE":"27.0071","INCLINATION":"53.0572","MEAN_ANOMALY":"294.4024","BSTAR":"-0.00002513900000","COUNTRY_CODE":"US","TLE_LINE1":"1 48327U 21036BD  22102.83593536 -.00000656  00000-0 -25139-4 0  9998","PERIAPSIS":"546.325","DECAY_DATE":null,"OBJECT_ID":"2021-036BD","FILE":"3398586","OBJECT_TYPE":"PAYLOAD","PERIOD":"95.593","MEAN_MOTION_DDOT":"0.0000000000000","SITE":"AFETR","EPHEMERIS_TYPE":"0","MEAN_ELEMENT_THEORY":"SGP4","APOAPSIS":"548.169","SEMIMAJOR_AXIS":"6925.382","REV_AT_EPOCH":"5356","CLASSIFICATION_TYPE":"U","TIME_SYSTEM":"UTC","CENTER_NAME":"EARTH","ECCENTRICITY":"0.00013310"}];
